NISAR                   
1 65053U 25163A   25309.18812262  .00000192  00000+0  71130-4 0  9992
2 65053  98.4059 135.0591 0001223  87.3801 272.7528 14.42503653 14095
